{"type": "FeatureCollection", "features": [ {"type": "Feature", "properties": {"norad_id": 41774, "name": "SKYSAT-C3", "group": "resource", "lat": -80.23238764165772, "lon": 155.05200186885781, "alt_km": 441.64678639372505, "timestamp": "2025-12-12T05:47:28.429395+00:00", "meta": {"OBJECT_NAME": "SKYSAT-C3", "OBJECT_ID": "2016-058E", "EPOCH": "2025-12-11T23:59:24.814464", "MEAN_MOTION": 15.44352987, "ECCENTRICITY": 0.0001633, "INCLINATION": 96.9304, "RA_OF_ASC_NODE": 19.7798, "ARG_OF_PERICENTER": 106.9783, "MEAN_ANOMALY": 253.1646, "EPHEMERIS_TYPE": 0, "CLASSIFICATION_TYPE": "U", "NORAD_CAT_ID": 41774, "ELEMENT_SET_NO": 999, "REV_AT_EPOCH": 51714, "BSTAR": 0.00054231426, "MEAN_MOTION_DOT": 0.00024978, "MEAN_MOTION_DDOT": 0}, "tle": {"line1": "1 41774U 16058E   25345.99959276  .00024978  00000+0  54231-3 0  9995", "line2": "2 41774  96.9304  19.7798 0001633 106.9783 253.1646 15.44352987517147"}}, "geometry": {"type": "Point", "coordinates": [155.05200186885781, -80.23238764165772]}}, {"type": "Feature", "properties": {"norad_id": 41785, "name": "ALSAT 1B", "group": "resource", "lat": -69.69688389355115, "lon": 156.36025543233822, "alt_km": 668.0288766906979, "timestamp": "2025-12-12T05:47:28.429406+00:00", "meta": {"OBJECT_NAME": "ALSAT 1B", "OBJECT_ID": "2016-059C", "EPOCH": "2025-12-11T23:45:37.841184", "MEAN_MOTION": 14.72073635, "ECCENTRICITY": 0.00106952, "INCLINATION": 97.7817, "RA_OF_ASC_NODE": 357.8119, "ARG_OF_PERICENTER": 105.1916, "MEAN_ANOMALY": 255.0475, "EPHEMERIS_TYPE": 0, "CLASSIFICATION_TYPE": "U", "NORAD_CAT_ID": 41785, "ELEMENT_SET_NO": 999, "REV_AT_EPOCH": 49303, "BSTAR": 0.0001141042, "MEAN_MOTION_DOT": 6.71e-06, "MEAN_MOTION_DDOT": 0}, "tle": {"line1": "1 41785U 16059C   25345.99002131  .00000671  00000+0  11410-3 0  9993", "line2": "2 41785  97.7817 357.8119 0010695 105.1916 255.0475 14.72073635493039"}}, "geometry": {"type": "Point", "coordinates": [156.36025543233822, -69.69688389355115]}}, {"type": "Feature", "properties": {"norad_id": 41787, "name": "PATHFINDER 1", "group": "resource", "lat": -22.041424686054693, "lon": -7.774880837408834, "alt_km": 680.3723922655663, "timestamp": "2025-12-12T05:47:28.429416+00:00", "meta": {"OBJECT_NAME": "PATHFINDER 1", "OBJECT_ID": "2016-059E", "EPOCH": "2025-12-11T23:20:45.577536", "MEAN_MOTION": 14.67319027, "ECCENTRICITY": 0.00300468, "INCLINATION": 97.8139, "RA_OF_ASC_NODE": 348.7819, "ARG_OF_PERICENTER": 83.5355, "MEAN_ANOMALY": 276.927, "EPHEMERIS_TYPE": 0, "CLASSIFICATION_TYPE": "U", "NORAD_CAT_ID": 41787, "ELEMENT_SET_NO": 999, "REV_AT_EPOCH": 49225, "BSTAR": 0.00023550064, "MEAN_MOTION_DOT": 1.291e-05, "MEAN_MOTION_DDOT": 0}, "tle": {"line1": "1 41787U 16059E   25345.97274974  .00001291  00000+0  23550-3 0  9996", "line2": "2 41787  97.8139 348.7819 0030046  83.5355 276.9270 14.67319027492253"}}, "geometry": {"type": "Point", "coordinates": [-7.774880837408834, -22.041424686054693]}}, {"type": "Feature", "properties": {"norad_id": 41790, "name": "SCATSAT 1", "group": "resource", "lat": -49.45611197747128, "lon": 52.54514536274651, "alt_km": 679.006990475481, "timestamp": "2025-12-12T05:47:28.429426+00:00", "meta": {"OBJECT_NAME": "SCATSAT 1", "OBJECT_ID": "2016-059H", "EPOCH": "2025-12-11T15:24:20.808864", "MEAN_MOTION": 14.78930902, "ECCENTRICITY": 0.00562291, "INCLINATION": 98.1464, "RA_OF_ASC_NODE": 42.2983, "ARG_OF_PERICENTER": 131.4501, "MEAN_ANOMALY": 229.1559, "EPHEMERIS_TYPE": 0, "CLASSIFICATION_TYPE": "U", "NORAD_CAT_ID": 41790, "ELEMENT_SET_NO": 999, "REV_AT_EPOCH": 7386, "BSTAR": 0.00036012993, "MEAN_MOTION_DOT": 2.671e-05, "MEAN_MOTION_DDOT": 0}, "tle": {"line1": "1 41790U 16059H   25345.64190751  .00002671  00000+0  36013-3 0  9995", "line2": "2 41790  98.1464  42.2983 0056229 131.4501 229.1559 14.78930902 73862"}}, "geometry": {"type": "Point", "coordinates": [52.54514536274651, -49.45611197747128]}}, {"type": "Feature", "properties": {"norad_id": 41875, "name": "GOKTURK 1A", "group": "resource", "lat": 62.3067980517377, "lon": -137.2168673854412, "alt_km": 677.3003462228435, "timestamp": "2025-12-12T05:47:28.429437+00:00", "meta": {"OBJECT_NAME": "GOKTURK 1A", "OBJECT_ID": "2016-073A", "EPOCH": "2025-12-11T22:56:07.911168", "MEAN_MOTION": 14.62778347, "ECCENTRICITY": 0.00012246, "INCLINATION": 98.1424, "RA_OF_ASC_NODE": 238.3311, "ARG_OF_PERICENTER": 77.8881, "MEAN_ANOMALY": 282.2458, "EPHEMERIS_TYPE": 0, "CLASSIFICATION_TYPE": "U", "NORAD_CAT_ID": 41875, "ELEMENT_SET_NO": 999, "REV_AT_EPOCH": 48145, "BSTAR": 0.00018028451, "MEAN_MOTION_DOT": 8.73e-06, "MEAN_MOTION_DDOT": 0}, "tle": {"line1": "1 41875U 16073A   25345.95564712  .00000873  00000+0  18028-3 0  9999", "line2": "2 41875  98.1424 238.3311 0001224  77.8881 282.2458 14.62778347481456"}}, "geometry": {"type": "Point", "coordinates": [-137.2168673854412, 62.3067980517377]}}, {"type": "Feature", "properties": {"norad_id": 41877, "name": "RESOURCESAT-2A", "group": "resource", "lat": -6.177990424594459, "lon": -124.85850260312588, "alt_km": 823.4023051140166, "timestamp": "2025-12-12T05:47:28.429447+00:00", "meta": {"OBJECT_NAME": "RESOURCESAT-2A", "OBJECT_ID": "2016-074A", "EPOCH": "2025-12-11T23:51:02.571264", "MEAN_MOTION": 14.21597692, "ECCENTRICITY": 0.00011075, "INCLINATION": 98.7752, "RA_OF_ASC_NODE": 55.8535, "ARG_OF_PERICENTER": 259.5829, "MEAN_ANOMALY": 100.5223, "EPHEMERIS_TYPE": 0, "CLASSIFICATION_TYPE": "U", "NORAD_CAT_ID": 41877, "ELEMENT_SET_NO": 999, "REV_AT_EPOCH": 46770, "BSTAR": 5.889618e-06, "MEAN_MOTION_DOT": -3.1e-07, "MEAN_MOTION_DDOT": 0}, "tle": {"line1": "1 41877U 16074A   25345.99377976 -.00000031  00000+0  58896-5 0  9996", "line2": "2 41877  98.7752  55.8535 0001107 259.5829 100.5223 14.21597692467700"}}, "geometry": {"type": "Point", "coordinates": [-124.85850260312588, -6.177990424594459]}}, {"type": "Feature", "properties": {"norad_id": 41948, "name": "CARTOSAT-2D", "group": "resource", "lat": 17.25205965367232, "lon": 41.420388981874105, "alt_km": 511.3288448436724, "timestamp": "2025-12-12T05:47:28.429457+00:00", "meta": {"OBJECT_NAME": "CARTOSAT-2D", "OBJECT_ID": "2017-008A", "EPOCH": "2025-12-11T23:23:30.645600", "MEAN_MOTION": 15.19247436, "ECCENTRICITY": 0.00046077, "INCLINATION": 97.4387, "RA_OF_ASC_NODE": 43.4832, "ARG_OF_PERICENTER": 164.7759, "MEAN_ANOMALY": 195.3615, "EPHEMERIS_TYPE": 0, "CLASSIFICATION_TYPE": "U", "NORAD_CAT_ID": 41948, "ELEMENT_SET_NO": 999, "REV_AT_EPOCH": 48915, "BSTAR": 0.00044059421, "MEAN_MOTION_DOT": 9.224e-05, "MEAN_MOTION_DDOT": 0}, "tle": {"line1": "1 41948U 17008A   25345.97466025  .00009224  00000+0  44059-3 0  9991", "line2": "2 41948  97.4387  43.4832 0004607 164.7759 195.3615 15.19247436489155"}}, "geometry": {"type": "Point", "coordinates": [41.420388981874105, 17.25205965367232]}}, {"type": "Feature", "properties": {"norad_id": 42063, "name": "SENTINEL-2B", "group": "resource", "lat": 41.12442508612928, "lon": -113.73971587387896, "alt_km": 785.131395523581, "timestamp": "2025-12-12T05:47:28.429468+00:00", "meta": {"OBJECT_NAME": "SENTINEL-2B", "OBJECT_ID": "2017-013A", "EPOCH": "2025-12-12T00:06:45.026784", "MEAN_MOTION": 14.30815096, "ECCENTRICITY": 0.00011526, "INCLINATION": 98.5711, "RA_OF_ASC_NODE": 58.4604, "ARG_OF_PERICENTER": 91.856, "MEAN_ANOMALY": 268.2755, "EPHEMERIS_TYPE": 0, "CLASSIFICATION_TYPE": "U", "NORAD_CAT_ID": 42063, "ELEMENT_SET_NO": 999, "REV_AT_EPOCH": 45787, "BSTAR": 6.8474907e-05, "MEAN_MOTION_DOT": 1.36e-06, "MEAN_MOTION_DDOT": 0}, "tle": {"line1": "1 42063U 17013A   25346.00468781  .00000136  00000+0  68475-4 0  9994", "line2": "2 42063  98.5711  58.4604 0001152  91.8560 268.2755 14.30815096457876"}}, "geometry": {"type": "Point", "coordinates": [-113.73971587387896, 41.12442508612928]}}, {"type": "Feature", "properties": {"norad_id": 42767, "name": "CARTOSAT-2E", "group": "resource", "lat": -70.14022069526334, "lon": 65.09119505505907, "alt_km": 514.6834242534987, "timestamp": "2025-12-12T05:47:28.429478+00:00", "meta": {"OBJECT_NAME": "CARTOSAT-2E", "OBJECT_ID": "2017-036C", "EPOCH": "2025-12-12T01:21:47.947680", "MEAN_MOTION": 15.19186912, "ECCENTRICITY": 0.00018747, "INCLINATION": 97.4555, "RA_OF_ASC_NODE": 43.6522, "ARG_OF_PERICENTER": 243.759, "MEAN_ANOMALY": 116.3452, "EPHEMERIS_TYPE": 0, "CLASSIFICATION_TYPE": "U", "NORAD_CAT_ID": 42767, "ELEMENT_SET_NO": 999, "REV_AT_EPOCH": 46973, "BSTAR": 0.00039469061, "MEAN_MOTION_DOT": 8.239e-05, "MEAN_MOTION_DDOT": 0}, "tle": {"line1": "1 42767U 17036C   25346.05680495  .00008239  00000+0  39469-3 0  9995", "line2": "2 42767  97.4555  43.6522 0001874 243.7590 116.3452 15.19186912469739"}}, "geometry": {"type": "Point", "coordinates": [65.09119505505907, -70.14022069526334]}}, {"type": "Feature", "properties": {"norad_id": 42920, "name": "FORMOSAT-5", "group": "resource", "lat": 73.62624934541134, "lon": -89.8577839139845, "alt_km": 722.1634946280865, "timestamp": "2025-12-12T05:47:28.429489+00:00", "meta": {"OBJECT_NAME": "FORMOSAT-5", "OBJECT_ID": "2017-049A", "EPOCH": "2025-12-12T00:20:51.241344", "MEAN_MOTION": 14.51004822, "ECCENTRICITY": 0.00099099, "INCLINATION": 98.2453, "RA_OF_ASC_NODE": 60.3479, "ARG_OF_PERICENTER": 298.0064, "MEAN_ANOMALY": 62.0128, "EPHEMERIS_TYPE": 0, "CLASSIFICATION_TYPE": "U", "NORAD_CAT_ID": 42920, "ELEMENT_SET_NO": 999, "REV_AT_EPOCH": 43953, "BSTAR": 0.00011237515, "MEAN_MOTION_DOT": 4.01e-06, "MEAN_MOTION_DDOT": 0}, "tle": {"line1": "1 42920U 17049A   25346.01448196  .00000401  00000+0  11238-3 0  9993", "line2": "2 42920  98.2453  60.3479 0009909 298.0064  62.0128 14.51004822439535"}}, "geometry": {"type": "Point", "coordinates": [-89.8577839139845, 73.62624934541134]}}]}